{"fetched_at":"2026-07-13T18:16:26.491Z","source":"https://celestrak.org/NORAD/elements/gp.php?GROUP=globalstar&FORMAT=JSON","constellation":"globalstar","records":[{"OBJECT_NAME":"GLOBALSTAR M080","OBJECT_ID":"2011-080B","EPOCH":"2026-07-12T12:05:24.637632","CLASSIFICATION_TYPE":"U","MEAN_MOTION":12.62257343,"ECCENTRICITY":0.00003289,"INCLINATION":52.0063,"RA_OF_ASC_NODE":301.9378,"ARG_OF_PERICENTER":82.4207,"MEAN_ANOMALY":358.7321,"EPHEMERIS_TYPE":0,"NORAD_CAT_ID":38041,"ELEMENT_SET_NO":999,"REV_AT_EPOCH":67208,"BSTAR":0.000089221834,"MEAN_MOTION_DOT":-8.8e-7,"MEAN_MOTION_DDOT":0},{"OBJECT_NAME":"GLOBALSTAR M082","OBJECT_ID":"2011-080C","EPOCH":"2026-07-13T05:19:19.759008","CLASSIFICATION_TYPE":"U","MEAN_MOTION":12.62264101,"ECCENTRICITY":0.00001967,"INCLINATION":52.0061,"RA_OF_ASC_NODE":255.2568,"ARG_OF_PERICENTER":103.1812,"MEAN_ANOMALY":292.1236,"EPHEMERIS_TYPE":0,"NORAD_CAT_ID":38042,"ELEMENT_SET_NO":999,"REV_AT_EPOCH":67288,"BSTAR":0.00017333769,"MEAN_MOTION_DOT":-7.3e-7,"MEAN_MOTION_DDOT":0},{"OBJECT_NAME":"GLOBALSTAR M092","OBJECT_ID":"2011-080D","EPOCH":"2026-07-12T21:46:53.139072","CLASSIFICATION_TYPE":"U","MEAN_MOTION":12.62267739,"ECCENTRICITY":0.00008147,"INCLINATION":52.0104,"RA_OF_ASC_NODE":346.61,"ARG_OF_PERICENTER":99.7089,"MEAN_ANOMALY":66.477,"EPHEMERIS_TYPE":0,"NORAD_CAT_ID":38043,"ELEMENT_SET_NO":999,"REV_AT_EPOCH":67129,"BSTAR":0.000082783041,"MEAN_MOTION_DOT":-8.9e-7,"MEAN_MOTION_DDOT":0},{"OBJECT_NAME":"GLOBALSTAR M090","OBJECT_ID":"2011-080E","EPOCH":"2026-07-10T05:44:52.489824","CLASSIFICATION_TYPE":"U","MEAN_MOTION":12.62253056,"ECCENTRICITY":0.00004514,"INCLINATION":52.0114,"RA_OF_ASC_NODE":258.2983,"ARG_OF_PERICENTER":107.2704,"MEAN_ANOMALY":288.2798,"EPHEMERIS_TYPE":0,"NORAD_CAT_ID":38044,"ELEMENT_SET_NO":999,"REV_AT_EPOCH":67262,"BSTAR":0.00012811834,"MEAN_MOTION_DOT":-8.1e-7,"MEAN_MOTION_DDOT":0},{"OBJECT_NAME":"GLOBALSTAR M086","OBJECT_ID":"2011-080F","EPOCH":"2026-07-13T04:33:43.464960","CLASSIFICATION_TYPE":"U","MEAN_MOTION":12.62287707,"ECCENTRICITY":0.00015522,"INCLINATION":51.9878,"RA_OF_ASC_NODE":249.2035,"ARG_OF_PERICENTER":109.1563,"MEAN_ANOMALY":284.4713,"EPHEMERIS_TYPE":0,"NORAD_CAT_ID":38045,"ELEMENT_SET_NO":999,"REV_AT_EPOCH":67294,"BSTAR":0.00014080966,"MEAN_MOTION_DOT":-7.9e-7,"MEAN_MOTION_DDOT":0},{"OBJECT_NAME":"GLOBALSTAR M097","OBJECT_ID":"2013-005A","EPOCH":"2026-07-13T07:02:50.031168","CLASSIFICATION_TYPE":"U","MEAN_MOTION":12.62271431,"ECCENTRICITY":0.00003829,"INCLINATION":52.0026,"RA_OF_ASC_NODE":163.8647,"ARG_OF_PERICENTER":37.5413,"MEAN_ANOMALY":322.5481,"EPHEMERIS_TYPE":0,"NORAD_CAT_ID":39072,"ELEMENT_SET_NO":999,"REV_AT_EPOCH":62020,"BSTAR":-0.000080268837,"MEAN_MOTION_DOT":-0.00000118,"MEAN_MOTION_DDOT":0},{"OBJECT_NAME":"GLOBALSTAR M093","OBJECT_ID":"2013-005B","EPOCH":"2026-07-13T06:24:16.715232","CLASSIFICATION_TYPE":"U","MEAN_MOTION":12.62266344,"ECCENTRICITY":0.00006078,"INCLINATION":52.0087,"RA_OF_ASC_NODE":157.3029,"ARG_OF_PERICENTER":41.5808,"MEAN_ANOMALY":318.5105,"EPHEMERIS_TYPE":0,"NORAD_CAT_ID":39073,"ELEMENT_SET_NO":999,"REV_AT_EPOCH":62015,"BSTAR":-0.000059923026,"MEAN_MOTION_DOT":-0.00000115,"MEAN_MOTION_DDOT":0},{"OBJECT_NAME":"GLOBALSTAR M094","OBJECT_ID":"2013-005C","EPOCH":"2026-07-12T20:53:56.397696","CLASSIFICATION_TYPE":"U","MEAN_MOTION":12.62264077,"ECCENTRICITY":0.00009481,"INCLINATION":51.9967,"RA_OF_ASC_NODE":72.6003,"ARG_OF_PERICENTER":58.272,"MEAN_ANOMALY":301.8239,"EPHEMERIS_TYPE":0,"NORAD_CAT_ID":39074,"ELEMENT_SET_NO":999,"REV_AT_EPOCH":62171,"BSTAR":-0.000095421143,"MEAN_MOTION_DOT":-0.00000121,"MEAN_MOTION_DDOT":0},{"OBJECT_NAME":"GLOBALSTAR M096","OBJECT_ID":"2013-005D","EPOCH":"2026-07-13T04:49:31.323072","CLASSIFICATION_TYPE":"U","MEAN_MOTION":12.62265679,"ECCENTRICITY":0.00007021,"INCLINATION":52.0067,"RA_OF_ASC_NODE":120.416,"ARG_OF_PERICENTER":38.1669,"MEAN_ANOMALY":321.9247,"EPHEMERIS_TYPE":0,"NORAD_CAT_ID":39075,"ELEMENT_SET_NO":999,"REV_AT_EPOCH":62067,"BSTAR":-0.000075048558,"MEAN_MOTION_DOT":-0.00000117,"MEAN_MOTION_DDOT":0},{"OBJECT_NAME":"GLOBALSTAR M078","OBJECT_ID":"2013-005E","EPOCH":"2026-07-12T01:34:27.467616","CLASSIFICATION_TYPE":"U","MEAN_MOTION":12.62260125,"ECCENTRICITY":0.00007584,"INCLINATION":51.9843,"RA_OF_ASC_NODE":207.849,"ARG_OF_PERICENTER":328.5209,"MEAN_ANOMALY":31.5612,"EPHEMERIS_TYPE":0,"NORAD_CAT_ID":39076,"ELEMENT_SET_NO":999,"REV_AT_EPOCH":61915,"BSTAR":0.00011341567,"MEAN_MOTION_DOT":-8.3e-7,"MEAN_MOTION_DDOT":0},{"OBJECT_NAME":"GLOBALSTAR M095","OBJECT_ID":"2013-005F","EPOCH":"2026-07-12T09:48:59.292576","CLASSIFICATION_TYPE":"U","MEAN_MOTION":12.62264177,"ECCENTRICITY":0.00003526,"INCLINATION":52.0054,"RA_OF_ASC_NODE":204.4426,"ARG_OF_PERICENTER":10.4758,"MEAN_ANOMALY":349.6116,"EPHEMERIS_TYPE":0,"NORAD_CAT_ID":39077,"ELEMENT_SET_NO":999,"REV_AT_EPOCH":61905,"BSTAR":0.00012838796,"MEAN_MOTION_DOT":-8.1e-7,"MEAN_MOTION_DDOT":0},{"OBJECT_NAME":"GLOBALSTAR M087","OBJECT_ID":"2022-064A","EPOCH":"2026-07-12T13:55:56.188416","CLASSIFICATION_TYPE":"U","MEAN_MOTION":12.62269324,"ECCENTRICITY":0.0000929,"INCLINATION":52.0015,"RA_OF_ASC_NODE":345.1442,"ARG_OF_PERICENTER":82.3508,"MEAN_ANOMALY":277.7464,"EPHEMERIS_TYPE":0,"NORAD_CAT_ID":52888,"ELEMENT_SET_NO":999,"REV_AT_EPOCH":19434,"BSTAR":0.000003152,"MEAN_MOTION_DOT":-0.00000103,"MEAN_MOTION_DDOT":0}]}
